{"type": "FeatureCollection", "features": [ {"type": "Feature", "properties": {"norad_id": 30134, "name": "FENGYUN 1C DEB", "group": "fengyun-1c-debris", "lat": 31.240813367645607, "lon": 15.167323852276954, "alt_km": 850.7390396338124, "timestamp": "2025-12-27T21:25:02.788178+00:00", "meta": {"OBJECT_NAME": "FENGYUN 1C DEB", "OBJECT_ID": "1999-025SP", "EPOCH": "2025-12-27T08:00:25.084224", "MEAN_MOTION": 14.13373325, "ECCENTRICITY": 0.0019576, "INCLINATION": 98.6927, "RA_OF_ASC_NODE": 19.9493, "ARG_OF_PERICENTER": 142.7698, "MEAN_ANOMALY": 287.6734, "EPHEMERIS_TYPE": 0, "CLASSIFICATION_TYPE": "U", "NORAD_CAT_ID": 30134, "ELEMENT_SET_NO": 999, "REV_AT_EPOCH": 97452, "BSTAR": 0.00049282, "MEAN_MOTION_DOT": 8.84e-06, "MEAN_MOTION_DDOT": 0}, "tle": {"line1": "1 30134U 99025SP  25361.33362366  .00000884  00000+0  49282-3 0  9992", "line2": "2 30134  98.6927  19.9493 0019576 142.7698 287.6734 14.13373325974520"}}, "geometry": {"type": "Point", "coordinates": [15.167323852276954, 31.240813367645607]}}, {"type": "Feature", "properties": {"norad_id": 30136, "name": "FENGYUN 1C DEB", "group": "fengyun-1c-debris", "lat": 35.7574832072369, "lon": 79.89825606720733, "alt_km": 947.7771463776699, "timestamp": "2025-12-27T21:25:02.788189+00:00", "meta": {"OBJECT_NAME": "FENGYUN 1C DEB", "OBJECT_ID": "1999-025SR", "EPOCH": "2025-12-27T04:15:27.991584", "MEAN_MOTION": 13.95344326, "ECCENTRICITY": 0.012934, "INCLINATION": 98.5565, "RA_OF_ASC_NODE": 253.0106, "ARG_OF_PERICENTER": 29.6768, "MEAN_ANOMALY": 123.1123, "EPHEMERIS_TYPE": 0, "CLASSIFICATION_TYPE": "U", "NORAD_CAT_ID": 30136, "ELEMENT_SET_NO": 999, "REV_AT_EPOCH": 96292, "BSTAR": 0.00058050271, "MEAN_MOTION_DOT": 8.04e-06, "MEAN_MOTION_DDOT": 0}, "tle": {"line1": "1 30136U 99025SR  25361.17740731  .00000804  00000+0  58050-3 0  9997", "line2": "2 30136  98.5565 253.0106 0129340  29.6768 123.1123 13.95344326962928"}}, "geometry": {"type": "Point", "coordinates": [79.89825606720733, 35.7574832072369]}}, {"type": "Feature", "properties": {"norad_id": 30138, "name": "FENGYUN 1C DEB", "group": "fengyun-1c-debris", "lat": 40.74569160728981, "lon": -117.3688769593435, "alt_km": 810.9736841287367, "timestamp": "2025-12-27T21:25:02.788199+00:00", "meta": {"OBJECT_NAME": "FENGYUN 1C DEB", "OBJECT_ID": "1999-025ST", "EPOCH": "2025-12-26T23:21:27.254304", "MEAN_MOTION": 14.2007392, "ECCENTRICITY": 0.0020186, "INCLINATION": 98.758, "RA_OF_ASC_NODE": 54.0896, "ARG_OF_PERICENTER": 99.3907, "MEAN_ANOMALY": 22.6831, "EPHEMERIS_TYPE": 0, "CLASSIFICATION_TYPE": "U", "NORAD_CAT_ID": 30138, "ELEMENT_SET_NO": 999, "REV_AT_EPOCH": 97603, "BSTAR": 0.00083304, "MEAN_MOTION_DOT": 1.734e-05, "MEAN_MOTION_DDOT": 0}, "tle": {"line1": "1 30138U 99025ST  25360.97323211  .00001734  00000+0  83304-3 0  9999", "line2": "2 30138  98.7580  54.0896 0020186  99.3907  22.6831 14.20073920976035"}}, "geometry": {"type": "Point", "coordinates": [-117.3688769593435, 40.74569160728981]}}, {"type": "Feature", "properties": {"norad_id": 30139, "name": "FENGYUN 1C DEB", "group": "fengyun-1c-debris", "lat": 16.47916615647306, "lon": 26.778268562814127, "alt_km": 870.6011969189576, "timestamp": "2025-12-27T21:25:02.788210+00:00", "meta": {"OBJECT_NAME": "FENGYUN 1C DEB", "OBJECT_ID": "1999-025SU", "EPOCH": "2025-12-27T12:22:56.345088", "MEAN_MOTION": 14.03707682, "ECCENTRICITY": 0.0130905, "INCLINATION": 98.365, "RA_OF_ASC_NODE": 203.9371, "ARG_OF_PERICENTER": 248.4465, "MEAN_ANOMALY": 174.9381, "EPHEMERIS_TYPE": 0, "CLASSIFICATION_TYPE": "U", "NORAD_CAT_ID": 30139, "ELEMENT_SET_NO": 999, "REV_AT_EPOCH": 96457, "BSTAR": 0.0013826, "MEAN_MOTION_DOT": 2.306e-05, "MEAN_MOTION_DDOT": 0}, "tle": {"line1": "1 30139U 99025SU  25361.51592992  .00002306  00000+0  13826-2 0  9992", "line2": "2 30139  98.3650 203.9371 0130905 248.4465 174.9381 14.03707682964577"}}, "geometry": {"type": "Point", "coordinates": [26.778268562814127, 16.47916615647306]}}, {"type": "Feature", "properties": {"norad_id": 30140, "name": "FENGYUN 1C DEB", "group": "fengyun-1c-debris", "lat": -6.099177258213863, "lon": 65.6931362239948, "alt_km": 825.4119246038144, "timestamp": "2025-12-27T21:25:02.788220+00:00", "meta": {"OBJECT_NAME": "FENGYUN 1C DEB", "OBJECT_ID": "1999-025SV", "EPOCH": "2025-12-27T02:59:47.851296", "MEAN_MOTION": 14.20825947, "ECCENTRICITY": 0.00413626, "INCLINATION": 98.8255, "RA_OF_ASC_NODE": 63.9756, "ARG_OF_PERICENTER": 267.461, "MEAN_ANOMALY": 122.2943, "EPHEMERIS_TYPE": 0, "CLASSIFICATION_TYPE": "U", "NORAD_CAT_ID": 30140, "ELEMENT_SET_NO": 999, "REV_AT_EPOCH": 97348, "BSTAR": 0.0014920934, "MEAN_MOTION_DOT": 3.208e-05, "MEAN_MOTION_DDOT": 0}, "tle": {"line1": "1 30140U 99025SV  25361.12485939  .00003208  00000+0  14921-2 0  9992", "line2": "2 30140  98.8255  63.9756 0041362 267.4610 122.2943 14.20825947973481"}}, "geometry": {"type": "Point", "coordinates": [65.6931362239948, -6.099177258213863]}}, {"type": "Feature", "properties": {"norad_id": 30141, "name": "FENGYUN 1C DEB", "group": "fengyun-1c-debris", "lat": -64.08599639930841, "lon": -56.17212572556887, "alt_km": 720.0725578426191, "timestamp": "2025-12-27T21:25:02.788230+00:00", "meta": {"OBJECT_NAME": "FENGYUN 1C DEB", "OBJECT_ID": "1999-025SW", "EPOCH": "2025-12-27T01:52:13.763712", "MEAN_MOTION": 14.51870019, "ECCENTRICITY": 0.00191628, "INCLINATION": 99.0145, "RA_OF_ASC_NODE": 283.8844, "ARG_OF_PERICENTER": 358.1012, "MEAN_ANOMALY": 2.0105, "EPHEMERIS_TYPE": 0, "CLASSIFICATION_TYPE": "U", "NORAD_CAT_ID": 30141, "ELEMENT_SET_NO": 999, "REV_AT_EPOCH": 98452, "BSTAR": 0.0034892487, "MEAN_MOTION_DOT": 0.00014067, "MEAN_MOTION_DDOT": 0}, "tle": {"line1": "1 30141U 99025SW  25361.07793708  .00014067  00000+0  34892-2 0  9997", "line2": "2 30141  99.0145 283.8844 0019162 358.1012   2.0105 14.51870019984527"}}, "geometry": {"type": "Point", "coordinates": [-56.17212572556887, -64.08599639930841]}}, {"type": "Feature", "properties": {"norad_id": 30142, "name": "FENGYUN 1C DEB", "group": "fengyun-1c-debris", "lat": 60.98438448667604, "lon": 61.05375023351037, "alt_km": 919.5724208571783, "timestamp": "2025-12-27T21:25:02.788241+00:00", "meta": {"OBJECT_NAME": "FENGYUN 1C DEB", "OBJECT_ID": "1999-025SX", "EPOCH": "2025-12-27T04:05:44.906496", "MEAN_MOTION": 14.10566455, "ECCENTRICITY": 0.010248, "INCLINATION": 99.127, "RA_OF_ASC_NODE": 77.1689, "ARG_OF_PERICENTER": 267.436, "MEAN_ANOMALY": 91.5076, "EPHEMERIS_TYPE": 0, "CLASSIFICATION_TYPE": "U", "NORAD_CAT_ID": 30142, "ELEMENT_SET_NO": 999, "REV_AT_EPOCH": 96502, "BSTAR": 0.0019610006, "MEAN_MOTION_DOT": 3.626e-05, "MEAN_MOTION_DDOT": 0}, "tle": {"line1": "1 30142U 99025SX  25361.17065864  .00003626  00000+0  19610-2 0  9994", "line2": "2 30142  99.1270  77.1689 0102480 267.4360  91.5076 14.10566455965028"}}, "geometry": {"type": "Point", "coordinates": [61.05375023351037, 60.98438448667604]}}, {"type": "Feature", "properties": {"norad_id": 30143, "name": "FENGYUN 1C DEB", "group": "fengyun-1c-debris", "lat": -75.50698613187313, "lon": -138.93709801103333, "alt_km": 828.8166340150328, "timestamp": "2025-12-27T21:25:02.788251+00:00", "meta": {"OBJECT_NAME": "FENGYUN 1C DEB", "OBJECT_ID": "1999-025SY", "EPOCH": "2025-12-27T00:15:50.203008", "MEAN_MOTION": 14.02632993, "ECCENTRICITY": 0.0103379, "INCLINATION": 98.7346, "RA_OF_ASC_NODE": 183.7226, "ARG_OF_PERICENTER": 251.0319, "MEAN_ANOMALY": 261.8298, "EPHEMERIS_TYPE": 0, "CLASSIFICATION_TYPE": "U", "NORAD_CAT_ID": 30143, "ELEMENT_SET_NO": 999, "REV_AT_EPOCH": 96419, "BSTAR": 0.001211, "MEAN_MOTION_DOT": 1.915e-05, "MEAN_MOTION_DDOT": 0}, "tle": {"line1": "1 30143U 99025SY  25361.01099772  .00001915  00000+0  12110-2 0  9990", "line2": "2 30143  98.7346 183.7226 0103379 251.0319 261.8298 14.02632993964197"}}, "geometry": {"type": "Point", "coordinates": [-138.93709801103333, -75.50698613187313]}}, {"type": "Feature", "properties": {"norad_id": 30144, "name": "FENGYUN 1C DEB", "group": "fengyun-1c-debris", "lat": 74.81917021914188, "lon": -149.96855809405133, "alt_km": 991.63091631925, "timestamp": "2025-12-27T21:25:02.788262+00:00", "meta": {"OBJECT_NAME": "FENGYUN 1C DEB", "OBJECT_ID": "1999-025SZ", "EPOCH": "2025-12-27T05:28:34.847040", "MEAN_MOTION": 13.91838145, "ECCENTRICITY": 0.0125606, "INCLINATION": 99.0107, "RA_OF_ASC_NODE": 353.5978, "ARG_OF_PERICENTER": 251.08, "MEAN_ANOMALY": 125.6471, "EPHEMERIS_TYPE": 0, "CLASSIFICATION_TYPE": "U", "NORAD_CAT_ID": 30144, "ELEMENT_SET_NO": 999, "REV_AT_EPOCH": 96042, "BSTAR": 0.00047182, "MEAN_MOTION_DOT": 5.97e-06, "MEAN_MOTION_DDOT": 0}, "tle": {"line1": "1 30144U 99025SZ  25361.22818110  .00000597  00000+0  47182-3 0  9992", "line2": "2 30144  99.0107 353.5978 0125606 251.0800 125.6471 13.91838145960426"}}, "geometry": {"type": "Point", "coordinates": [-149.96855809405133, 74.81917021914188]}}, {"type": "Feature", "properties": {"norad_id": 30145, "name": "FENGYUN 1C DEB", "group": "fengyun-1c-debris", "lat": -47.7649040401372, "lon": 122.39686724843023, "alt_km": 910.5526577202136, "timestamp": "2025-12-27T21:25:02.788273+00:00", "meta": {"OBJECT_NAME": "FENGYUN 1C DEB", "OBJECT_ID": "1999-025TA", "EPOCH": "2025-12-27T06:37:22.022976", "MEAN_MOTION": 14.14175978, "ECCENTRICITY": 0.0089522, "INCLINATION": 99.2687, "RA_OF_ASC_NODE": 111.3954, "ARG_OF_PERICENTER": 108.5942, "MEAN_ANOMALY": 306.6954, "EPHEMERIS_TYPE": 0, "CLASSIFICATION_TYPE": "U", "NORAD_CAT_ID": 30145, "ELEMENT_SET_NO": 999, "REV_AT_EPOCH": 96401, "BSTAR": 0.0027251, "MEAN_MOTION_DOT": 5.354e-05, "MEAN_MOTION_DDOT": 0}, "tle": {"line1": "1 30145U 99025TA  25361.27594934  .00005354  00000+0  27251-2 0  9993", "line2": "2 30145  99.2687 111.3954 0089522 108.5942 306.6954 14.14175978964015"}}, "geometry": {"type": "Point", "coordinates": [122.39686724843023, -47.7649040401372]}}]}